NORAD_CAT_ID,OBJECT_NAME,OBJECT_TYPE,EPOCH,MEAN_MOTION,ECCENTRICITY,INCLINATION,RA_OF_ASC_NODE,ARG_OF_PERICENTER,MEAN_ANOMALY,BSTAR,MEAN_MOTION_DOT,MEAN_MOTION_DDOT,TLE_LINE0,TLE_LINE1,TLE_LINE2,SEMIMAJOR_AXIS,PERIOD,APOGEE,PERIGEE,DECAYED
56464.0,STARLINK-6043,PAYLOAD,2023-06-18 06:00:00,15.51212714,0.0003569,69.9995,137.4176,273.4729,356.6324,0.00057195,0.00033561,0.0,0 STARLINK-6043,1 56464U 23064S   23169.25001157  .00033561  00000-0  57195-3 0  9990,2 56464  69.9995 137.4176 0003569 273.4729 356.6324 15.51212714  6419,6791.321,92.831,415.61,410.762,0.0
56464.0,STARLINK-6043,PAYLOAD,2023-06-18 14:00:01,15.51252501,0.0003552,69.9994,136.506,269.6123,61.4753,-0.0013603,-0.00079356,0.0,0 STARLINK-6043,1 56464U 23064S   23169.58335648 -.00079356  00000-0 -13603-2 0  9990,2 56464  69.9994 136.5060 0003552 269.6123  61.4753 15.51252501  1305,6791.205,92.828,415.482,410.658,0.0
56464.0,STARLINK-6043,PAYLOAD,2023-06-18 22:00:00,15.51227176,0.00036,69.9999,135.5949,264.7134,127.2177,0.00018785,0.00010886,0.0,0 STARLINK-6043,1 56464U 23064S   23169.91667824  .00010886  00000-0  18785-3 0  9999,2 56464  69.9999 135.5949 0003600 264.7134 127.2177 15.51227176  6516,6791.279,92.83,415.589,410.699,0.0
56464.0,STARLINK-6043,PAYLOAD,2023-06-19 14:00:01,15.51404801,0.0003421,69.9998,133.7718,264.9543,248.792,-0.015131,-0.00820074,0.0,0 STARLINK-6043,1 56464U 23064S   23170.58334491 -.00820074  00000-0 -15131-1 0  9995,2 56464  69.9998 133.7718 0003421 264.9543 248.7920 15.51404801  6625,6790.761,92.819,414.949,410.302,0.0
56464.0,STARLINK-6043,PAYLOAD,2023-06-19 22:00:00,15.50845634,0.0003408,70.0002,132.8611,259.5821,314.934,-0.017978,-0.0095585,0.0,0 STARLINK-6043,1 56464U 23064S   23170.91667824 -.00955850  00000-0 -17978-1 0  9993,2 56464  70.0002 132.8611 0003408 259.5821 314.9340 15.50845634  1304,6792.393,92.853,416.573,411.943,0.0
56464.0,STARLINK-6043,PAYLOAD,2023-06-20 06:00:02,15.50146691,0.0003239,70.0002,131.9507,266.4773,8.1501,-0.016865,-0.00869208,0.0,0 STARLINK-6043,1 56464U 23064S   23171.25002315 -.00869208  00000-0 -16865-1 0  9994,2 56464  70.0002 131.9507 0003239 266.4773   8.1501 15.50146691  6722,6794.434,92.894,418.5,414.099,0.0
56464.0,STARLINK-6043,PAYLOAD,2023-06-20 14:00:01,15.49503666,0.0003219,70.0001,131.0413,265.1113,68.7008,-0.017901,-0.00898876,0.0,0 STARLINK-6043,1 56464U 23064S   23171.58334491 -.00898876  00000-0 -17901-1 0  9998,2 56464  70.0001 131.0413 0003219 265.1113  68.7008 15.49503666  1300,6796.314,92.933,420.367,415.991,0.0
56464.0,STARLINK-6043,PAYLOAD,2023-06-20 22:00:00,15.48900581,0.0003338,70.0004,130.1332,265.2963,126.9614,-0.019668,-0.00974323,0.0,0 STARLINK-6043,1 56464U 23064S   23171.91667824 -.00974323  00000-0 -19668-1 0  9998,2 56464  70.0004 130.1332 0003338 265.2963 126.9614 15.48900581  1305,6798.078,92.969,422.212,417.674,0.0
56464.0,STARLINK-6043,PAYLOAD,2023-06-21 14:00:01,15.47542761,0.0003133,70.0,128.3186,268.8861,237.9777,-0.018924,-0.00900011,0.0,0 STARLINK-6043,1 56464U 23064S   23172.58334491 -.00900011  00000-0 -18924-1 0  9990,2 56464  70.0000 128.3186 0003133 268.8861 237.9777 15.47542761  6934,6802.054,93.051,426.05,421.788,0.0
56464.0,STARLINK-6043,PAYLOAD,2023-06-21 22:00:01,15.4693653,0.0003178,70.0006,127.4129,264.8663,298.1641,-0.020806,-0.0096323,0.0,0 STARLINK-6043,1 56464U 23064S   23172.91668981 -.00963230  00000-0 -20806-1 0  9995,2 56464  70.0006 127.4129 0003178 264.8663 298.1641 15.46936530  1307,6803.831,93.087,427.858,423.534,0.0
56464.0,STARLINK-6043,PAYLOAD,2023-06-22 06:00:00,15.46234755,0.000325,70.0005,126.5079,274.0828,344.2371,-0.019414,-0.00872102,0.0,0 STARLINK-6043,1 56464U 23064S   23173.25001157 -.00872102  00000-0 -19414-1 0  9999,2 56464  70.0005 126.5079 0003250 274.0828 344.2371 15.46234755  7036,6805.889,93.129,429.966,425.542,0.0
56464.0,STARLINK-6043,PAYLOAD,2023-06-22 20:00:01,15.45127736,0.0003316,70.0002,124.9263,265.7765,357.4859,-0.02135,-0.00931423,0.0,0 STARLINK-6043,1 56464U 23064S   23173.83334491 -.00931423  00000-0 -21350-1 0  9997,2 56464  70.0002 124.9263 0003316 265.7765 357.4859 15.45127736  7126,6809.14,93.196,433.263,428.747,0.0
56464.0,STARLINK-6043,PAYLOAD,2023-06-23 22:00:01,15.43020846,0.0003217,70.0002,121.9964,268.3481,254.972,-0.023734,-0.00961102,0.0,0 STARLINK-6043,1 56464U 23064S   23174.91668981 -.00961102  00000-0 -23734-1 0  9996,2 56464  70.0002 121.9964 0003217 268.3481 254.9720 15.43020846  7293,6815.337,93.323,439.394,435.009,0.0
56464.0,STARLINK-6043,PAYLOAD,2023-06-24 14:00:01,15.41661498,0.0003336,69.9998,120.198,268.9467,354.8337,-0.022624,-0.00881797,0.0,0 STARLINK-6043,1 56464U 23064S   23175.58334491 -.00881797  00000-0 -22624-1 0  9994,2 56464  69.9998 120.1980 0003336 268.9467 354.8337 15.41661498  7392,6819.342,93.406,443.482,438.932,0.0
56464.0,STARLINK-6043,PAYLOAD,2023-06-25 06:00:00,15.40360341,0.0003557,69.9997,118.4032,273.4635,87.6881,-0.023495,-0.00877339,0.0,0 STARLINK-6043,1 56464U 23064S   23176.25001157 -.00877339  00000-0 -23495-1 0  9993,2 56464  69.9997 118.4032 0003557 273.4635  87.6881 15.40360341  7490,6823.182,93.485,447.474,442.62,0.0
56464.0,STARLINK-6043,PAYLOAD,2023-06-25 22:00:01,15.39101201,0.0003524,69.9998,116.6116,269.9057,185.5438,-0.026837,-0.00954351,0.0,0 STARLINK-6043,1 56464U 23064S   23176.91668981 -.00954351  00000-0 -26837-1 0  9993,2 56464  69.9998 116.6116 0003524 269.9057 185.5438 15.39101201  7601,6826.903,93.561,451.174,446.362,0.0
56464.0,STARLINK-6043,PAYLOAD,2023-06-26 14:00:01,15.37744711,0.0003339,69.9995,114.8235,268.5915,277.9252,-0.02543,-0.00871777,0.0,0 STARLINK-6043,1 56464U 23064S   23177.58334491 -.00871777  00000-0 -25430-1 0  9991,2 56464  69.9995 114.8235 0003339 268.5915 277.9252 15.37744711  7700,6830.917,93.644,455.063,450.501,0.0
56464.0,STARLINK-6043,PAYLOAD,2023-06-27 06:00:00,15.36449145,0.0003459,69.9996,113.0391,272.8741,1.6261,-0.026739,-0.00878399,0.0,0 STARLINK-6043,1 56464U 23064S   23178.25001157 -.00878399  00000-0 -26739-1 0  9996,2 56464  69.9996 113.0391 0003459 272.8741   1.6261 15.36449145  7808,6834.757,93.723,458.986,454.257,0.0
56464.0,STARLINK-6043,PAYLOAD,2023-06-27 22:00:00,15.35194187,0.000354,69.9996,111.2585,269.0623,90.2846,-0.031015,-0.00970039,0.0,0 STARLINK-6043,1 56464U 23064S   23178.91667824 -.00970039  00000-0 -31015-1 0  9995,2 56464  69.9996 111.2585 0003540 269.0623  90.2846 15.35194187  7907,6838.481,93.799,462.767,457.925,0.0
56464.0,STARLINK-6043,PAYLOAD,2023-06-28 14:00:01,15.33816617,0.0003344,69.9996,109.4814,271.2084,169.8911,-0.028043,-0.00849082,0.0,0 STARLINK-6043,1 56464U 23064S   23179.58334491 -.00849082  00000-0 -28043-1 0  9990,2 56464  69.9996 109.4814 0003344 271.2084 169.8911 15.33816617  8015,6842.575,93.883,466.728,462.152,0.0
56464.0,STARLINK-6043,PAYLOAD,2023-06-29 22:00:00,15.31272,0.0003251,70.0002,105.9378,268.5451,326.6078,-0.034731,-0.00972634,0.0,0 STARLINK-6043,1 56464U 23064S   23180.91667824 -.00972634  00000-0 -34731-1 0  9999,2 56464  70.0002 105.9378 0003251 268.5451 326.6078 15.31272000  8215,6850.153,94.039,474.245,469.791,0.0
56464.0,STARLINK-6043,PAYLOAD,2023-06-30 22:00:00,15.29311506,0.0003346,70.0007,103.2892,268.931,73.5628,-0.036662,-0.00966567,0.0,0 STARLINK-6043,1 56464U 23064S   23181.91667824 -.00966567  00000-0 -36662-1 0  9993,2 56464  70.0007 103.2892 0003346 268.9310  73.5628 15.29311506  8362,6856.006,94.16,480.165,475.577,0.0
56464.0,STARLINK-6043,PAYLOAD,2023-07-01 12:00:00,15.28129492,0.0003222,70.0005,101.7478,269.5123,42.357,-0.035234,-0.0088983,0.0,0 STARLINK-6043,1 56464U 23064S   23182.50001157 -.00889830  00000-0 -35234-1 0  9991,2 56464  70.0005 101.7478 0003222 269.5123  42.3570 15.28129492  8455,6859.541,94.233,483.616,479.196,0.0
56464.0,STARLINK-6043,PAYLOAD,2023-07-02 04:00:00,15.26828905,0.0003274,70.0009,99.9896,273.5571,103.216,-0.036183,-0.00879138,0.0,0 STARLINK-6043,1 56464U 23064S   23183.16667824 -.00879138  00000-0 -36183-1 0  9997,2 56464  70.0009  99.9896 0003274 273.5571 103.2160 15.26828905  8556,6863.436,94.313,487.548,483.054,0.0
56464.0,STARLINK-6043,PAYLOAD,2023-07-04 06:00:02,15.22782324,0.0003171,70.0007,94.5175,273.3725,16.1319,-0.043537,-0.00943755,0.0,0 STARLINK-6043,1 56464U 23064S   23185.25002315 -.00943755  00000-0 -43537-1 0  9995,2 56464  70.0007  94.5175 0003171 273.3725  16.1319 15.22782324  8873,6875.59,94.564,499.635,495.275,0.0
56464.0,STARLINK-6043,PAYLOAD,2023-07-05 14:00:01,15.20124805,0.0003223,70.0004,91.0333,266.0571,124.3371,-0.042364,-0.00845586,0.0,0 STARLINK-6043,1 56464U 23064S   23186.58335648 -.00845586  00000-0 -42364-1 0  9990,2 56464  70.0004  91.0333 0003223 266.0571 124.3371 15.20124805  9080,6883.601,94.729,507.684,503.247,0.0
56464.0,STARLINK-6043,PAYLOAD,2023-07-05 22:00:01,15.19503541,0.0003193,70.0005,90.1643,268.8442,144.8122,-0.047232,-0.00930787,0.0,0 STARLINK-6043,1 56464U 23064S   23186.91668981 -.00930787  00000-0 -47232-1 0  9993,2 56464  70.0005  90.1643 0003193 268.8442 144.8122 15.19503541  9131,6885.477,94.768,509.541,505.143,0.0
56464.0,STARLINK-6043,PAYLOAD,2023-07-07 06:00:00,15.16916774,0.0002945,69.9996,86.6973,273.7527,225.0572,-0.052233,-0.00953319,0.0,0 STARLINK-6043,1 56464U 23064S   23188.25001157 -.00953319  00000-0 -52233-1 0  9991,2 56464  69.9996  86.6973 0002945 273.7527 225.0572 15.16916774  9332,6893.303,94.929,517.198,513.137,0.0
56464.0,STARLINK-6043,PAYLOAD,2023-07-07 22:00:00,15.1557712,0.0003062,69.9997,84.969,269.423,267.3273,-0.051684,-0.00911113,0.0,0 STARLINK-6043,1 56464U 23064S   23188.91667824 -.00911113  00000-0 -51684-1 0  9998,2 56464  69.9997  84.9690 0003062 269.4230 267.3273 15.15577120  9439,6897.364,95.013,521.341,517.117,0.0
56464.0,STARLINK-6043,PAYLOAD,2023-07-08 22:00:00,15.13615455,0.0003071,69.9996,82.383,268.9936,318.7739,-0.054041,-0.0090188,0.0,0 STARLINK-6043,1 56464U 23064S   23189.91667824 -.00901880  00000-0 -54041-1 0  9999,2 56464  69.9996  82.3830 0003071 268.9936 318.7739 15.13615455  9589,6903.322,95.136,527.307,523.067,0.0
